[
    {
        "Altitude(m)": 556178.5122541977,
        "Argument of Periapsis(deg)": 0.026491964442854003,
        "Eccentricity": 0.0,
        "Inclination(deg)": 53.0,
        "Latitude(deg)": 36.300172424620314,
        "Longitude(deg)": -94.78163194013878,
        "Mean Anomaly(deg)": -312.3608285296897,
        "RAAN(deg)": 334.9605734741121,
        "Satellite Name": "Starlink Shell 1 1474",
        "Satellite Number": 1474,
        "Semi-Major Axis(m)": 6931778.249405717,
        "Time(s)": 760
    },
    {
        "Altitude(m)": 556261.495280152,
        "Argument of Periapsis(deg)": 0.02684054292236524,
        "Eccentricity": 0.0,
        "Inclination(deg)": 53.0,
        "Latitude(deg)": 36.718102114286935,
        "Longitude(deg)": -94.24121487866486,
        "Mean Anomaly(deg)": -311.73399732613296,
        "RAAN(deg)": 334.96005470403463,
        "Satellite Name": "Starlink Shell 1 1474",
        "Satellite Number": 1474,
        "Semi-Major Axis(m)": 6931778.249405717,
        "Time(s)": 770
    },
    {
        "Altitude(m)": 556344.6906727715,
        "Argument of Periapsis(deg)": 0.027189121401876473,
        "Eccentricity": 0.0,
        "Inclination(deg)": 53.0,
        "Latitude(deg)": 37.13312888365373,
        "Longitude(deg)": -93.69449002826512,
        "Mean Anomaly(deg)": -311.1071661225762,
        "RAAN(deg)": 334.95953593395717,
        "Satellite Name": "Starlink Shell 1 1474",
        "Satellite Number": 1474,
        "Semi-Major Axis(m)": 6931778.249405717,
        "Time(s)": 780
    },
    {
        "Altitude(m)": 556428.0429363964,
        "Argument of Periapsis(deg)": 0.02753769988138771,
        "Eccentricity": 0.0,
        "Inclination(deg)": 53.0,
        "Latitude(deg)": 37.545177914142556,
        "Longitude(deg)": -93.14133687270424,
        "Mean Anomaly(deg)": -310.48033491901947,
        "RAAN(deg)": 334.95901716387965,
        "Satellite Name": "Starlink Shell 1 1474",
        "Satellite Number": 1474,
        "Semi-Major Axis(m)": 6931778.249405717,
        "Time(s)": 790
    },
    {
        "Altitude(m)": 556511.496705432,
        "Argument of Periapsis(deg)": 0.02788627836089895,
        "Eccentricity": 0.0,
        "Inclination(deg)": 53.0,
        "Latitude(deg)": 37.954172698327874,
        "Longitude(deg)": -92.58163519455663,
        "Mean Anomaly(deg)": -309.8535037154628,
        "RAAN(deg)": 334.9584983938022,
        "Satellite Name": "Starlink Shell 1 1474",
        "Satellite Number": 1474,
        "Semi-Major Axis(m)": 6931778.249405717,
        "Time(s)": 800
    },
    {
        "Altitude(m)": 556594.9967727363,
        "Argument of Periapsis(deg)": 0.02823485684041019,
        "Eccentricity": 0.0,
        "Inclination(deg)": 53.0,
        "Latitude(deg)": 38.36003501323535,
        "Longitude(deg)": -92.01526471630349,
        "Mean Anomaly(deg)": -309.2266725119061,
        "RAAN(deg)": 334.9579796237247,
        "Satellite Name": "Starlink Shell 1 1474",
        "Satellite Number": 1474,
        "Semi-Major Axis(m)": 6931778.249405717,
        "Time(s)": 810
    },
    {
        "Altitude(m)": 556678.488117832,
        "Argument of Periapsis(deg)": 0.028583435319921423,
        "Eccentricity": 0.0,
        "Inclination(deg)": 53.0,
        "Latitude(deg)": 38.762684895123805,
        "Longitude(deg)": -91.44210475395803,
        "Mean Anomaly(deg)": -308.59984130834937,
        "RAAN(deg)": 334.95746085364726,
        "Satellite Name": "Starlink Shell 1 1474",
        "Satellite Number": 1474,
        "Semi-Major Axis(m)": 6931778.249405717,
        "Time(s)": 820
    },
    {
        "Altitude(m)": 556761.9159350278,
        "Argument of Periapsis(deg)": 0.028932013799432665,
        "Eccentricity": 0.0,
        "Inclination(deg)": 53.0,
        "Latitude(deg)": 39.16204061595977,
        "Longitude(deg)": -90.86203539670065,
        "Mean Anomaly(deg)": -307.97301010479265,
        "RAAN(deg)": 334.95694208356974,
        "Satellite Name": "Starlink Shell 1 1474",
        "Satellite Number": 1474,
        "Semi-Major Axis(m)": 6931778.249405717,
        "Time(s)": 830
    },
    {
        "Altitude(m)": 556845.2256613618,
        "Argument of Periapsis(deg)": 0.029280592278943897,
        "Eccentricity": 0.0,
        "Inclination(deg)": 53.0,
        "Latitude(deg)": 39.55801866180613,
        "Longitude(deg)": -90.2749371874018,
        "Mean Anomaly(deg)": -307.3461789012359,
        "RAAN(deg)": 334.95642331349234,
        "Satellite Name": "Starlink Shell 1 1474",
        "Satellite Number": 1474,
        "Semi-Major Axis(m)": 6931778.249405717,
        "Time(s)": 840
    },
    {
        "Altitude(m)": 556928.3630043861,
        "Argument of Periapsis(deg)": 0.029629170758455132,
        "Eccentricity": 0.0,
        "Inclination(deg)": 53.0,
        "Latitude(deg)": 39.95053371336361,
        "Longitude(deg)": -89.68069081751204,
        "Mean Anomaly(deg)": -306.7193476976792,
        "RAAN(deg)": 334.9559045434148,
        "Satellite Name": "Starlink Shell 1 1474",
        "Satellite Number": 1474,
        "Semi-Major Axis(m)": 6931778.249405717,
        "Time(s)": 850
    },
    {
        "Altitude(m)": 557011.2739697987,
        "Argument of Periapsis(deg)": 0.02997774923796637,
        "Eccentricity": 0.0,
        "Inclination(deg)": 53.0,
        "Latitude(deg)": 40.33949862892079,
        "Longitude(deg)": -89.07917851788696,
        "Mean Anomaly(deg)": -306.0925164941225,
        "RAAN(deg)": 334.95538577333735,
        "Satellite Name": "Starlink Shell 1 1474",
        "Satellite Number": 1474,
        "Semi-Major Axis(m)": 6931778.249405717,
        "Time(s)": 860
    },
    {
        "Altitude(m)": 557093.9048888368,
        "Argument of Periapsis(deg)": 0.030326327717477602,
        "Eccentricity": 0.0,
        "Inclination(deg)": 53.0,
        "Latitude(deg)": 40.72482442997926,
        "Longitude(deg)": -88.47028294371293,
        "Mean Anomaly(deg)": -305.46568529056583,
        "RAAN(deg)": 334.9548670032599,
        "Satellite Name": "Starlink Shell 1 1474",
        "Satellite Number": 1474,
        "Semi-Major Axis(m)": 6931778.249405717,
        "Time(s)": 870
    },
    {
        "Altitude(m)": 557176.2024455295,
        "Argument of Periapsis(deg)": 0.030674906196988847,
        "Eccentricity": 0.0,
        "Inclination(deg)": 53.0,
        "Latitude(deg)": 41.1064202898429,
        "Longitude(deg)": -87.85388859699815,
        "Mean Anomaly(deg)": -304.83885408700905,
        "RAAN(deg)": 334.9543482331824,
        "Satellite Name": "Starlink Shell 1 1474",
        "Satellite Number": 1474,
        "Semi-Major Axis(m)": 6931778.249405717,
        "Time(s)": 880
    },
    {
        "Altitude(m)": 557258.1137036766,
        "Argument of Periapsis(deg)": 0.031023484676500086,
        "Eccentricity": 0.0,
        "Inclination(deg)": 53.0,
        "Latitude(deg)": 41.48419352547102,
        "Longitude(deg)": -87.22988158473932,
        "Mean Anomaly(deg)": -304.21202288345233,
        "RAAN(deg)": 334.95382946310497,
        "Satellite Name": "Starlink Shell 1 1474",
        "Satellite Number": 1474,
        "Semi-Major Axis(m)": 6931778.249405717,
        "Time(s)": 890
    },
    {
        "Altitude(m)": 557339.5861336488,
        "Argument of Periapsis(deg)": 0.03137206315601132,
        "Eccentricity": 0.0,
        "Inclination(deg)": 53.0,
        "Latitude(deg)": 41.858049592914575,
        "Longitude(deg)": -86.59814939422496,
        "Mean Anomaly(deg)": -303.5851916798957,
        "RAAN(deg)": 334.9533106930275,
        "Satellite Name": "Starlink Shell 1 1474",
        "Satellite Number": 1474,
        "Semi-Major Axis(m)": 6931778.249405717,
        "Time(s)": 900
    },
    {
        "Altitude(m)": 557420.5676389028,
        "Argument of Periapsis(deg)": 0.03172064163552255,
        "Eccentricity": 0.0,
        "Inclination(deg)": 53.0,
        "Latitude(deg)": 42.227892086668426,
        "Longitude(deg)": -85.95858219879173,
        "Mean Anomaly(deg)": -302.9583604763389,
        "RAAN(deg)": 334.95279192295,
        "Satellite Name": "Starlink Shell 1 1474",
        "Satellite Number": 1474,
        "Semi-Major Axis(m)": 6931778.249405717,
        "Time(s)": 910
    },
    {
        "Altitude(m)": 557501.006582288,
        "Argument of Periapsis(deg)": 0.0320692201150338,
        "Eccentricity": 0.0,
        "Inclination(deg)": 53.0,
        "Latitude(deg)": 42.593622743289885,
        "Longitude(deg)": -85.31107266867352,
        "Mean Anomaly(deg)": -302.3315292727822,
        "RAAN(deg)": 334.9522731528725,
        "Satellite Name": "Starlink Shell 1 1474",
        "Satellite Number": 1474,
        "Semi-Major Axis(m)": 6931778.249405717,
        "Time(s)": 920
    },
    {
        "Altitude(m)": 557580.8518120596,
        "Argument of Periapsis(deg)": 0.032417798594545036,
        "Eccentricity": 0.0,
        "Inclination(deg)": 53.0,
        "Latitude(deg)": 42.955141449646085,
        "Longitude(deg)": -84.65551580013798,
        "Mean Anomaly(deg)": -301.7046980692255,
        "RAAN(deg)": 334.95175438279506,
        "Satellite Name": "Starlink Shell 1 1474",
        "Satellite Number": 1474,
        "Semi-Major Axis(m)": 6931778.249405717,
        "Time(s)": 930
    },
    {
        "Altitude(m)": 557660.0526876195,
        "Argument of Periapsis(deg)": 0.03276637707405627,
        "Eccentricity": 0.0,
        "Inclination(deg)": 53.0,
        "Latitude(deg)": 43.312346256169704,
        "Longitude(deg)": -83.99181027601185,
        "Mean Anomaly(deg)": -301.07786686566874,
        "RAAN(deg)": 334.9512356127176,
        "Satellite Name": "Starlink Shell 1 1474",
        "Satellite Number": 1474,
        "Semi-Major Axis(m)": 6931778.249405717,
        "Time(s)": 940
    }
]